HULIANWANG DIGUI-01     
1 62323U 24240A   26063.43959879  .00000070  00000+0  12783-3 0  9999
2 62323  86.5029  18.5513 0001941  86.1445 273.9910 13.24420487 58777
HULIANWANG DIGUI-02     
1 62324U 24240B   26063.44706103  .00000067  00000+0  12166-3 0  9992
2 62324  86.5058  18.6785 0001865  89.7486 270.3861 13.24422123 58787
HULIANWANG DIGUI-03     
1 62325U 24240C   26063.50747596  .00000062  00000+0  10976-3 0  9993
2 62325  86.5011  18.4481 0002018  85.0809 275.0556 13.24422024 58780
HULIANWANG DIGUI-04     
1 62326U 24240D   26063.49995416  .00000051  00000+0  83557-4 0  9992
2 62326  86.5020  18.4823 0002053  85.5443 274.5926 13.24421678 58788
HULIANWANG DIGUI-05     
1 62327U 24240E   26063.49244719  .00000047  00000+0  75078-4 0  9990
2 62327  86.5072  18.7039 0002080  84.6951 275.4420 13.24420949 58781
HULIANWANG DIGUI-06     
1 62328U 24240F   26063.47723870  .00000032  00000+0  39610-4 0  9995
2 62328  86.5010  18.4283 0002028  89.1021 271.0345 13.24422882 58788
HULIANWANG DIGUI-07     
1 62329U 24240G   26063.46977968  .00000035  00000+0  48102-4 0  9993
2 62329  86.4981  18.2992 0002008  87.3588 272.7776 13.24421037 58783
HULIANWANG DIGUI-08     
1 62330U 24240H   26063.48490903  .00000035  00000+0  46396-4 0  9999
2 62330  86.5063  18.6639 0002124  86.0349 274.1027 13.24420862 58789
HULIANWANG DIGUI-09     
1 62331U 24240J   26063.46215406  .00000040  00000+0  59747-4 0  9991
2 62331  86.5030  18.5670 0001956  89.3543 270.7815 13.24422286 58770
HULIANWANG DIGUI-10     
1 62332U 24240K   26063.45463945  .00000044  00000+0  68774-4 0  9998
2 62332  86.5060  18.6918 0001958  91.3508 268.7850 13.24421647 58772
HULIANWANG DIGUI-11     
1 62971U 25030A   26063.51034679 -.00000086  00000+0  81035-4 0  9992
2 62971  49.9993 251.2751 0000748 165.3520 194.7373 13.29337709 51930
HULIANWANG DIGUI-12     
1 62972U 25030B   26063.51858869 -.00000092  00000+0  69283-4 0  9996
2 62972  50.0008 251.3644 0000876 159.7088 200.3819 13.29339873 51934
HULIANWANG DIGUI-13     
1 62973U 25030C   26063.50196146 -.00000090  00000+0  73572-4 0  9993
2 62973  50.0011 251.2897 0000699 150.6648 209.4263 13.29337804 51938
HULIANWANG DIGUI-14     
1 62974U 25030D   26063.47696037 -.00000095  00000+0  62283-4 0  9996
2 62974  50.0017 251.1775 0000792 151.0052 209.0864 13.29337608 51932
HULIANWANG DIGUI-15     
1 62975U 25030E   26063.49364345 -.00000085  00000+0  85072-4 0  9993
2 62975  50.0012 251.2490 0000671 157.4949 202.5953 13.29337790 51933
HULIANWANG DIGUI-16     
1 62976U 25030F   26063.46855708 -.00000094  00000+0  65693-4 0  9996
2 62976  50.0034 251.1866 0000788 147.7865 212.3055 13.29338347 51933
HULIANWANG DIGUI-17     
1 62977U 25030G   26063.46023945 -.00000092  00000+0  68447-4 0  9995
2 62977  50.0047 251.1822 0000729 153.8546 206.2363 13.29338131 51934
HULIANWANG DIGUI-18     
1 62978U 25030H   26063.52704489 -.00000095  00000+0  62784-4 0  9993
2 62978  50.0051 250.8792 0000788 157.6121 202.4786 13.29338206 51949
HULIANWANG DIGUI-19     
1 62979U 25030J   26063.48507902 -.00000082  00000+0  90134-4 0  9996
2 62979  50.0037 251.2778 0000796 150.6475 209.4442 13.29341331 51935
HULIANWANG DIGUI-20     
1 63687U 25086A   26063.46605082  .00000051  00000+0  85107-4 0  9999
2 63687  86.5125 348.3952 0001717  91.9412 268.1918 13.24420112 41016
HULIANWANG DIGUI-21     
1 63688U 25086B   26063.47354395  .00000057  00000+0  99792-4 0  9990
2 63688  86.5153 348.4217 0001606  94.7089 265.4229 13.24421707 41006
HULIANWANG DIGUI-22     
1 63689U 25086C   26063.48110794  .00000073  00000+0  13706-3 0  9993
2 63689  86.5118 348.3225 0001790  92.2021 267.9318 13.24421409 41004
HULIANWANG DIGUI-23     
1 63690U 25086D   26063.49616641  .00000086  00000+0  16508-3 0  9995
2 63690  86.5160 348.4536 0001737  88.3400 271.7933 13.24422149 41005
HULIANWANG DIGUI-24     
1 63691U 25086E   26063.50377750  .00000088  00000+0  17169-3 0  9999
2 63691  86.5167 348.4777 0001768  92.6672 267.4664 13.24420263 41001
HULIANWANG DIGUI-25     
1 63692U 25086F   26063.43576265  .00000083  00000+0  16009-3 0  9991
2 63692  86.5106 348.3229 0001664  91.4132 268.7192 13.24421703 40996
HULIANWANG DIGUI-26     
1 63693U 25086G   26063.48853770  .00000078  00000+0  14727-3 0  9995
2 63693  86.5154 348.4312 0001735  96.7977 263.3354 13.24421178 41008
HULIANWANG DIGUI-27     
1 63694U 25086H   26063.44339500  .00000077  00000+0  14560-3 0  9996
2 63694  86.5115 348.3548 0001770  91.8107 268.3229 13.24420125 40990
HULIANWANG DIGUI-28     
1 63695U 25086J   26063.45842798  .00000058  00000+0  10027-3 0  9999
2 63695  86.5080 348.2545 0001761  91.7787 268.3549 13.24421433 40999
HULIANWANG DIGUI-29     
1 63696U 25086K   26063.45095102  .00000075  00000+0  13989-3 0  9998
2 63696  86.5108 348.3369 0001640  92.2438 267.8883 13.24420325 40995
HULIANWANG DIGUI-30     
1 64283U 25121A   26063.45832264  .00000036  00000+0  50195-4 0  9997
2 64283  86.4946  48.8907 0001995  79.0259 281.1099 13.24423372 36295
HULIANWANG DIGUI-31     
1 64284U 25121B   26063.45098796  .00000055  00000+0  93485-4 0  9992
2 64284  86.4967  48.9435 0002020  79.1634 280.9727 13.24419587 36292
HULIANWANG DIGUI-32     
1 64285U 25121C   26063.44308092  .00000070  00000+0  12908-3 0  9992
2 64285  86.4908  48.7762 0002006  81.2310 278.9051 13.24425282 36294
HULIANWANG DIGUI-33     
1 64286U 25121D   26063.43550538  .00000061  00000+0  10702-3 0  9996
2 64286  86.4965  48.9335 0002081  78.4568 281.6800 13.24425373 36296
HULIANWANG DIGUI-34     
1 64287U 25121E   26063.42800106  .00000039  00000+0  55546-4 0  9996
2 64287  86.4943  48.8681 0002227  74.6017 285.5363 13.24424218 36299
HULIANWANG DIGUI-35     
1 64956U 25159A   26063.47000723  .00000061  00000+0  10817-3 0  9998
2 64956  86.4986 317.8274 0001293  71.2506 288.8768 13.24417081 29268
HULIANWANG DIGUI-36     
1 64957U 25159B   26063.46226153  .00000065  00000+0  11704-3 0  9995
2 64957  86.5006 317.8676 0001371  70.4398 289.6884 13.24419736 29263
HULIANWANG DIGUI-37     
1 64958U 25159C   26063.45471933  .00000058  00000+0  10145-3 0  9993
2 64958  86.4947 317.7327 0001458  68.2505 291.8784 13.24419329 29262
HULIANWANG DIGUI-38     
1 64959U 25159D   26063.44718436  .00000060  00000+0  10565-3 0  9994
2 64959  86.5007 317.8605 0001435  70.7376 289.3914 13.24419499 29265
HULIANWANG DIGUI-39     
1 64960U 25159E   26063.43961719  .00000075  00000+0  13955-3 0  9991
2 64960  86.4982 317.8031 0001441  71.8630 288.2661 13.24419666 29266
HULIANWANG DIGUI-40     
1 65043U 25162A   26063.44141162 -.00000073  00000+0  10900-3 0  9997
2 65043  49.9990 281.6537 0001018  70.8355 289.2627 13.29332123 29411
HULIANWANG DIGUI-41     
1 65044U 25162B   26063.43305950 -.00000059  00000+0  14045-3 0  9992
2 65044  50.0001 281.6275 0001059  70.6427 289.4560 13.29332538 29429
HULIANWANG DIGUI-42     
1 65045U 25162C   26063.42467789 -.00000059  00000+0  14011-3 0  9994
2 65045  49.9966 281.5224 0000993  72.0361 288.0619 13.29331951 29427
HULIANWANG DIGUI-43     
1 65046U 25162D   26063.41630420 -.00000061  00000+0  13562-3 0  9991
2 65046  49.9982 281.5106 0000992  70.9209 289.1770 13.29332975 29429
HULIANWANG DIGUI-44     
1 65047U 25162E   26063.40766396 -.00000066  00000+0  12513-3 0  9993
2 65047  50.0010 281.5134 0000786 350.1835   9.9021 13.29340549 29439
HULIANWANG DIGUI-45     
1 65048U 25162F   26063.47481061 -.00000069  00000+0  11862-3 0  9993
2 65048  50.0040 281.2554 0001049  70.8991 289.1995 13.29332858 29434
HULIANWANG DIGUI-46     
1 65049U 25162G   26063.46645497 -.00000067  00000+0  12216-3 0  9990
2 65049  50.0057 281.2446 0001047  73.3475 286.7512 13.29332807 29438
HULIANWANG DIGUI-47     
1 65050U 25162H   26063.53327763 -.00000072  00000+0  11241-3 0  9996
2 65050  50.0021 280.8695 0001026  74.4804 285.6181 13.29332641 29444
HULIANWANG DIGUI-48     
1 65051U 25162J   26063.44976660 -.00000064  00000+0  13008-3 0  9997
2 65051  50.0032 281.1129 0001015  72.4828 287.6155 13.29332164 29437
HULIANWANG DIGUI-49     
1 65106U 25168A   26063.43617880 -.00000039  00000+0  18375-3 0  9993
2 65106  50.0049 341.6668 0007409 150.2321 209.8974 13.29338578 28756
HULIANWANG DIGUI-50     
1 65107U 25168B   26063.50295582 -.00000036  00000+0  19043-3 0  9993
2 65107  50.0020 341.2968 0008364 136.3859 223.7675 13.29339245 28763
HULIANWANG DIGUI-51     
1 65108U 25168C   26063.41941200 -.00000031  00000+0  20124-3 0  9996
2 65108  50.0057 341.5924 0009711 136.1058 224.0587 13.29339569 28759
HULIANWANG DIGUI-52     
1 65109U 25168D   26063.41117177 -.00000040  00000+0  18184-3 0  9998
2 65109  50.0050 341.5318 0009605 148.9725 211.1716 13.29338183 28756
HULIANWANG DIGUI-53     
1 65110U 25168E   26063.40281606 -.00000042  00000+0  17768-3 0  9997
2 65110  50.0058 341.5102 0008397 138.7193 221.4315 13.29338101 28759
HULIANWANG DIGUI-54     
1 65111U 25168F   26063.45311611 -.00000035  00000+0  19239-3 0  9990
2 65111  50.0008 341.0207 0009996 144.1599 215.9946 13.29335279 28765
HULIANWANG DIGUI-55     
1 65112U 25168G   26063.31921073 -.00000046  00000+0  16872-3 0  9997
2 65112  50.0014 341.6537 0011273 139.5838 220.5873 13.29338795 28745
HULIANWANG DIGUI-56     
1 65113U 25168H   26063.31087632 -.00000037  00000+0  18664-3 0  9993
2 65113  50.0006 341.5948 0010986 161.5743 198.5529 13.29338183 28745
HULIANWANG DIGUI-57     
1 65114U 25168J   26063.29442904 -.00000026  00000+0  21074-3 0  9995
2 65114  50.0034 341.5640 0008742 152.0061 208.1282 13.29335076 28754
HULIANWANG DIGUI-58     
1 65164U 25174A   26063.48110928  .00000094  00000+0  18584-3 0  9992
2 65164  86.4928 287.3922 0001252  86.7790 273.3487 13.24421030 26935
HULIANWANG DIGUI-59     
1 65165U 25174B   26063.48866030  .00000094  00000+0  18419-3 0  9992
2 65165  86.4889 287.3195 0001243  86.1393 273.9883 13.24421176 26934
